ONEWEB-0640             
1 55804U 23029J   26169.77270512  .00000207  00000+0  52298-3 0  9990
2 55804  87.8955 289.4263 0001323  86.1299 273.9981 13.14503594159621
ONEWEB-0641             
1 55805U 23029K   26169.77095988  .00000008  00000+0 -13526-4 0  9995
2 55805  87.9180 304.6496 0001791 104.0206 256.1126 13.19725032159125
ONEWEB-0642             
1 55806U 23029L   26169.76622852 -.00000003  00000+0 -41007-4 0  9992
2 55806  87.9172 304.6619 0001645 126.0472 234.0813 13.19725049159116
ONEWEB-0643             
1 55807U 23029M   26169.59034272 -.00000176  00000+0 -51042-3 0  9997
2 55807  87.8956 289.4497 0001969 121.2329 238.8994 13.14503683159572
ONEWEB-0644             
1 55808U 23029N   26169.76148484 -.00000073  00000+0 -21588-3 0  9996
2 55808  87.9170 304.6643 0001783 111.2692 248.8631 13.19724545159117
ONEWEB-0645             
1 55809U 23029P   26169.63196288  .00000121  00000+0  27048-3 0  9997
2 55809  87.9170 304.6873 0001445 102.5453 257.5841 13.19724471159091
ONEWEB-0646             
1 55810U 23029Q   26169.64934718  .00000029  00000+0  39121-4 0  9991
2 55810  87.9171 304.6839 0001799 108.3815 251.7513 13.19724968159086
ONEWEB-0648             
1 55811U 23029R   26169.78696911  .00000264  00000+0  67794-3 0  9994
2 55811  87.8971 289.3845 0001193 124.7115 235.4127 13.14501481159609
ONEWEB-0649             
1 55812U 23029S   26169.75042588 -.00000059  00000+0 -17935-3 0  9993
2 55812  87.9172 304.6615 0001608 102.7413 257.3899 13.19725030159138
ONEWEB-0650             
1 55813U 23029T   26169.74567804 -.00000151  00000+0 -40895-3 0  9990
2 55813  87.9170 304.6649 0001622 115.7746 244.3555 13.19723897159104
ONEWEB-0652             
1 55814U 23029U   26169.76793022 -.00000131  00000+0 -38731-3 0  9990
2 55814  87.8961 289.3956 0002082  99.2611 260.8754 13.14502582159576
ONEWEB-0653             
1 55815U 23029V   26169.59984439 -.00000048  00000+0 -16428-3 0  9992
2 55815  87.8966 289.4269 0001895  97.9724 262.1621 13.14503816159581
ONEWEB-0654             
1 55816U 23029W   26169.29061569 -.00000119  00000+0 -35609-3 0  9991
2 55816  87.8964 289.4848 0002109  92.2318 267.9053 13.14503994159566
ONEWEB-0656             
1 55817U 23029X   26169.71954058  .00000035  00000+0  55041-4 0  9991
2 55817  87.9202 274.1243 0002285  91.6295 268.5100 13.20772913161351
ONEWEB-0657             
1 55818U 23029Y   26169.74095912 -.00000030  00000+0 -10683-3 0  9999
2 55818  87.9173 304.6643 0002542  99.8697 260.2723 13.19724243159116
ONEWEB-0658             
1 55819U 23029Z   26169.73621829 -.00000014  00000+0 -66078-4 0  9993
2 55819  87.9180 304.6411 0001743 111.5491 248.5827 13.19724710159128
ONEWEB-0660             
1 55820U 23029AA  26169.72512598 -.00000007  00000+0 -53627-4 0  9994
2 55820  87.8975 289.3912 0001562  98.9687 261.1619 13.14503077159609
ONEWEB-0661             
1 55821U 23029AB  26169.76002271 -.00000057  00000+0 -18863-3 0  9998
2 55821  87.8957 289.4293 0001641  96.0308 264.1009 13.14503061159597
ONEWEB-0662             
1 55822U 23029AC  26169.71879171  .00000072  00000+0  16104-3 0  9996
2 55822  87.8956 289.4432 0001583 100.4122 259.7186 13.14501955159632
ONEWEB-0663             
1 55823U 23029AD  26169.75308007  .00005945  00000+0  14550-1 0  9991
2 55823  87.9200 274.1848 0000929 155.0555 205.0623 13.20909847161358
ONEWEB-0664             
1 55824U 23029AE  26169.78183446  .00000067  00000+0  13337-3 0  9997
2 55824  87.9186 274.1648 0001773  87.6207 272.5129 13.20770406161359
ONEWEB-0665             
1 55825U 23029AF  26169.75684977 -.00000109  00000+0 -32785-3 0  9997
2 55825  87.8958 289.4103 0001553 102.7632 257.3671 13.14503577159613
ONEWEB-0666             
1 55826U 23029AG  26169.77509953  .00000094  00000+0  19892-3 0  9995
2 55826  87.9185 274.1557 0002686 103.0274 257.1160 13.20771364161369
ONEWEB-0667             
1 55827U 23029AH  26169.77005354  .00000079  00000+0  16169-3 0  9999
2 55827  87.9202 274.1154 0001800  98.3786 261.7551 13.20771639161353
ONEWEB-0669             
1 55828U 23029AJ  26169.76499826  .00000038  00000+0  60707-4 0  9993
2 55828  87.9193 274.1271 0002202  86.0668 274.0717 13.20771986161359
ONEWEB-0670             
1 55829U 23029AK  26169.73464981 -.00000117  00000+0 -34956-3 0  9991
2 55829  87.8958 289.4321 0001631  90.1585 269.9732 13.14502598159634
ONEWEB-0671             
1 55830U 23029AL  26169.65565212  .00000053  00000+0  98972-4 0  9999
2 55830  87.9172 304.6830 0001709  98.0253 262.1074 13.19724641159099
ONEWEB-0672             
1 55831U 23029AM  26169.75994032  .00000076  00000+0  15515-3 0  9993
2 55831  87.9195 274.1214 0002251  98.4791 261.6598 13.20772681161352
ONEWEB-0673             
1 55832U 23029AN  26169.63274323  .00000118  00000+0  26247-3 0  9996
2 55832  87.9179 304.6793 0001740  96.9252 263.2079 13.19727585159094
ONEWEB-0674             
1 55833U 23029AP  26169.77904337  .00000214  00000+0  54268-3 0  9998
2 55833  87.8953 289.4002 0001675  88.8098 271.3223 13.14504490159625
