OBJECT_NAME,OBJECT_ID,EPOCH,MEAN_MOTION,ECCENTRICITY,INCLINATION,RA_OF_ASC_NODE,ARG_OF_PERICENTER,MEAN_ANOMALY,EPHEMERIS_TYPE,CLASSIFICATION_TYPE,NORAD_CAT_ID,ELEMENT_SET_NO,REV_AT_EPOCH,BSTAR,MEAN_MOTION_DOT,MEAN_MOTION_DDOT
ONEWEB-0640,2023-029J,2026-06-18T18:32:41.722368,13.14503594,.0001323,87.8955,289.4263,86.1299,273.9981,0,U,55804,999,15962,.52298E-3,.207E-5,0
ONEWEB-0641,2023-029K,2026-06-18T18:30:10.933632,13.19725032,.0001791,87.9180,304.6496,104.0206,256.1126,0,U,55805,999,15912,-.13526E-4,.8E-7,0
ONEWEB-0642,2023-029L,2026-06-18T18:23:22.144128,13.19725049,.0001645,87.9172,304.6619,126.0472,234.0813,0,U,55806,999,15911,-.41007E-4,-.3E-7,0
ONEWEB-0643,2023-029M,2026-06-18T14:10:05.611008,13.14503683,.0001969,87.8956,289.4497,121.2329,238.8994,0,U,55807,999,15957,-.51042E-3,-.176E-5,0
ONEWEB-0644,2023-029N,2026-06-18T18:16:32.290176,13.19724545,.0001783,87.9170,304.6643,111.2692,248.8631,0,U,55808,999,15911,-.21588E-3,-.73E-6,0
ONEWEB-0645,2023-029P,2026-06-18T15:10:01.592832,13.19724471,.0001445,87.9170,304.6873,102.5453,257.5841,0,U,55809,999,15909,.27048E-3,.121E-5,0
ONEWEB-0646,2023-029Q,2026-06-18T15:35:03.596352,13.19724968,.0001799,87.9171,304.6839,108.3815,251.7513,0,U,55810,999,15908,.39121E-4,.29E-6,0
ONEWEB-0648,2023-029R,2026-06-18T18:53:14.131104,13.14501481,.0001193,87.8971,289.3845,124.7115,235.4127,0,U,55811,999,15960,.67794E-3,.264E-5,0
ONEWEB-0649,2023-029S,2026-06-18T18:00:36.796032,13.19725030,.0001608,87.9172,304.6615,102.7413,257.3899,0,U,55812,999,15913,-.17935E-3,-.59E-6,0
ONEWEB-0650,2023-029T,2026-06-18T17:53:46.582656,13.19723897,.0001622,87.9170,304.6649,115.7746,244.3555,0,U,55813,999,15910,-.40895E-3,-.151E-5,0
ONEWEB-0652,2023-029U,2026-06-18T18:25:49.171008,13.14502582,.0002082,87.8961,289.3956,99.2611,260.8754,0,U,55814,999,15957,-.38731E-3,-.131E-5,0
ONEWEB-0653,2023-029V,2026-06-18T14:23:46.555296,13.14503816,.0001895,87.8966,289.4269,97.9724,262.1621,0,U,55815,999,15958,-.16428E-3,-.48E-6,0
ONEWEB-0654,2023-029W,2026-06-18T06:58:29.195616,13.14503994,.0002109,87.8964,289.4848,92.2318,267.9053,0,U,55816,999,15956,-.35609E-3,-.119E-5,0
ONEWEB-0656,2023-029X,2026-06-18T17:16:08.306112,13.20772913,.0002285,87.9202,274.1243,91.6295,268.5100,0,U,55817,999,16135,.55041E-4,.35E-6,0
ONEWEB-0657,2023-029Y,2026-06-18T17:46:58.867968,13.19724243,.0002542,87.9173,304.6643,99.8697,260.2723,0,U,55818,999,15911,-.10683E-3,-.3E-6,0
ONEWEB-0658,2023-029Z,2026-06-18T17:40:09.260256,13.19724710,.0001743,87.9180,304.6411,111.5491,248.5827,0,U,55819,999,15912,-.66078E-4,-.14E-6,0
ONEWEB-0660,2023-029AA,2026-06-18T17:24:10.884672,13.14503077,.0001562,87.8975,289.3912,98.9687,261.1619,0,U,55820,999,15960,-.53627E-4,-.7E-7,0
ONEWEB-0661,2023-029AB,2026-06-18T18:14:25.962144,13.14503061,.0001641,87.8957,289.4293,96.0308,264.1009,0,U,55821,999,15959,-.18863E-3,-.57E-6,0
ONEWEB-0662,2023-029AC,2026-06-18T17:15:03.603744,13.14501955,.0001583,87.8956,289.4432,100.4122,259.7186,0,U,55822,999,15963,.16104E-3,.72E-6,0
ONEWEB-0663,2023-029AD,2026-06-18T18:04:26.118048,13.20909847,.0000929,87.9200,274.1848,155.0555,205.0623,0,U,55823,999,16135,.1455E-1,.5945E-4,0
ONEWEB-0664,2023-029AE,2026-06-18T18:45:50.497344,13.20770406,.0001773,87.9186,274.1648,87.6207,272.5129,0,U,55824,999,16135,.13337E-3,.67E-6,0
ONEWEB-0665,2023-029AF,2026-06-18T18:09:51.820128,13.14503577,.0001553,87.8958,289.4103,102.7632,257.3671,0,U,55825,999,15961,-.32785E-3,-.109E-5,0
ONEWEB-0666,2023-029AG,2026-06-18T18:36:08.599392,13.20771364,.0002686,87.9185,274.1557,103.0274,257.1160,0,U,55826,999,16136,.19892E-3,.94E-6,0
ONEWEB-0667,2023-029AH,2026-06-18T18:28:52.625856,13.20771639,.00018,87.9202,274.1154,98.3786,261.7551,0,U,55827,999,16135,.16169E-3,.79E-6,0
ONEWEB-0669,2023-029AJ,2026-06-18T18:21:35.849664,13.20771986,.0002202,87.9193,274.1271,86.0668,274.0717,0,U,55828,999,16135,.60707E-4,.38E-6,0
ONEWEB-0670,2023-029AK,2026-06-18T17:37:53.743584,13.14502598,.0001631,87.8958,289.4321,90.1585,269.9732,0,U,55829,999,15963,-.34956E-3,-.117E-5,0
ONEWEB-0671,2023-029AL,2026-06-18T15:44:08.343168,13.19724641,.0001709,87.9172,304.6830,98.0253,262.1074,0,U,55830,999,15909,.98972E-4,.53E-6,0
ONEWEB-0672,2023-029AM,2026-06-18T18:14:18.843648,13.20772681,.0002251,87.9195,274.1214,98.4791,261.6598,0,U,55831,999,16135,.15515E-3,.76E-6,0
ONEWEB-0673,2023-029AN,2026-06-18T15:11:09.015072,13.19727585,.000174,87.9179,304.6793,96.9252,263.2079,0,U,55832,999,15909,.26247E-3,.118E-5,0
ONEWEB-0674,2023-029AP,2026-06-18T18:41:49.347168,13.14504490,.0001675,87.8953,289.4002,88.8098,271.3223,0,U,55833,999,15962,.54268E-3,.214E-5,0
